[{"OBJECT_NAME":"STARLINK-35273","OBJECT_ID":"2025-218Q","EPOCH":"2026-03-09T12:44:58.460352","MEAN_MOTION":15.05645582,"ECCENTRICITY":0.00022559,"INCLINATION":97.6026,"RA_OF_ASC_NODE":292.7636,"ARG_OF_PERICENTER":78.5723,"MEAN_ANOMALY":281.5758,"EPHEMERIS_TYPE":0,"CLASSIFICATION_TYPE":"U","NORAD_CAT_ID":65805,"ELEMENT_SET_NO":999,"REV_AT_EPOCH":2494,"BSTAR":0.00038239935,"MEAN_MOTION_DOT":5.461e-5,"MEAN_MOTION_DDOT":0},{"OBJECT_NAME":"FREGAT DEB","OBJECT_ID":"2011-037BV","EPOCH":"2026-03-08T05:45:34.376544","MEAN_MOTION":11.841002,"ECCENTRICITY":0.16352432,"INCLINATION":51.4346,"RA_OF_ASC_NODE":250.7968,"ARG_OF_PERICENTER":264.1792,"MEAN_ANOMALY":77.1145,"EPHEMERIS_TYPE":0,"CLASSIFICATION_TYPE":"U","NORAD_CAT_ID":45835,"ELEMENT_SET_NO":999,"REV_AT_EPOCH":24132,"BSTAR":0.0027919036,"MEAN_MOTION_DOT":0.00015279,"MEAN_MOTION_DDOT":0}]
